[Satellite]
VERSION=1.1
NAME=GPS BIIRM-3 (PRN 12)
NICKNAME=GPS BIIRM-3 (PRN 12)
TLE1=1 29601U 06052A   20156.19948120 -.00000067  00000-0  00000+0 0  9992
TLE2=2 29601  56.0490 301.3999 0078502  65.5838 295.2080  2.00562699 99255
STATUS=0
